[{"OBJECT_NAME":"BRO-8","OBJECT_ID":"2023-001C","EPOCH":"2026-04-27T06:53:49.710624","MEAN_MOTION":15.4606312,"ECCENTRICITY":0.00041616,"INCLINATION":97.3257,"RA_OF_ASC_NODE":181.8473,"ARG_OF_PERICENTER":308.973,"MEAN_ANOMALY":51.1148,"EPHEMERIS_TYPE":0,"CLASSIFICATION_TYPE":"U","NORAD_CAT_ID":55011,"ELEMENT_SET_NO":999,"REV_AT_EPOCH":18433,"BSTAR":0.00069273903,"MEAN_MOTION_DOT":0.00033884,"MEAN_MOTION_DDOT":0},{"OBJECT_NAME":"CONNECTA T1.2","OBJECT_ID":"2023-001D","EPOCH":"2026-04-27T03:10:08.915232","MEAN_MOTION":15.47348499,"ECCENTRICITY":0.00045892,"INCLINATION":97.3313,"RA_OF_ASC_NODE":187.049,"ARG_OF_PERICENTER":272.6488,"MEAN_ANOMALY":87.4236,"EPHEMERIS_TYPE":0,"CLASSIFICATION_TYPE":"U","NORAD_CAT_ID":55012,"ELEMENT_SET_NO":999,"REV_AT_EPOCH":18464,"BSTAR":0.00041961086,"MEAN_MOTION_DOT":0.00021384,"MEAN_MOTION_DDOT":0},{"OBJECT_NAME":"BIRKELAND","OBJECT_ID":"2023-001G","EPOCH":"2026-04-25T13:35:04.940160","MEAN_MOTION":15.39136194,"ECCENTRICITY":0.00049994,"INCLINATION":97.338,"RA_OF_ASC_NODE":183.4315,"ARG_OF_PERICENTER":299.4044,"MEAN_ANOMALY":60.6702,"EPHEMERIS_TYPE":0,"CLASSIFICATION_TYPE":"U","NORAD_CAT_ID":55015,"ELEMENT_SET_NO":999,"REV_AT_EPOCH":18425,"BSTAR":0.000235605,"MEAN_MOTION_DOT":9.059e-5,"MEAN_MOTION_DDOT":0},{"OBJECT_NAME":"ION SCV-008","OBJECT_ID":"2023-001AU","EPOCH":"2026-04-27T07:08:07.420704","MEAN_MOTION":15.27926316,"ECCENTRICITY":0.00150482,"INCLINATION":97.5678,"RA_OF_ASC_NODE":212.7989,"ARG_OF_PERICENTER":186.5665,"MEAN_ANOMALY":173.5379,"EPHEMERIS_TYPE":0,"CLASSIFICATION_TYPE":"U","NORAD_CAT_ID":55051,"ELEMENT_SET_NO":999,"REV_AT_EPOCH":18356,"BSTAR":0.00031080391,"MEAN_MOTION_DOT":8.422e-5,"MEAN_MOTION_DDOT":0},{"OBJECT_NAME":"ION SCV-007","OBJECT_ID":"2023-001BD","EPOCH":"2026-04-27T03:15:33.370560","MEAN_MOTION":14.77504908,"ECCENTRICITY":0.00133539,"INCLINATION":97.9039,"RA_OF_ASC_NODE":181.1561,"ARG_OF_PERICENTER":136.4942,"MEAN_ANOMALY":223.7325,"EPHEMERIS_TYPE":0,"CLASSIFICATION_TYPE":"U","NORAD_CAT_ID":55060,"ELEMENT_SET_NO":999,"REV_AT_EPOCH":17871,"BSTAR":7.185404e-5,"MEAN_MOTION_DOT":4.62e-6,"MEAN_MOTION_DDOT":0},{"OBJECT_NAME":"HUYGENS","OBJECT_ID":"2023-001CN","EPOCH":"2026-04-27T06:09:14.359680","MEAN_MOTION":15.39161752,"ECCENTRICITY":0.00078532,"INCLINATION":97.3283,"RA_OF_ASC_NODE":184.4192,"ARG_OF_PERICENTER":263.5555,"MEAN_ANOMALY":96.4796,"EPHEMERIS_TYPE":0,"CLASSIFICATION_TYPE":"U","NORAD_CAT_ID":55093,"ELEMENT_SET_NO":999,"REV_AT_EPOCH":18453,"BSTAR":0.00029201429,"MEAN_MOTION_DOT":0.00011267,"MEAN_MOTION_DDOT":0},{"OBJECT_NAME":"SHARJAHSAT-1","OBJECT_ID":"2023-001CZ","EPOCH":"2026-04-27T05:49:50.023776","MEAN_MOTION":15.47219078,"ECCENTRICITY":0.00042177,"INCLINATION":97.3208,"RA_OF_ASC_NODE":185.3685,"ARG_OF_PERICENTER":287.8599,"MEAN_ANOMALY":72.2191,"EPHEMERIS_TYPE":0,"CLASSIFICATION_TYPE":"U","NORAD_CAT_ID":55104,"ELEMENT_SET_NO":999,"REV_AT_EPOCH":18461,"BSTAR":0.00041882507,"MEAN_MOTION_DOT":0.00021247,"MEAN_MOTION_DDOT":0},{"OBJECT_NAME":"HORUS 1","OBJECT_ID":"2023-025A","EPOCH":"2026-04-27T07:32:36.048768","MEAN_MOTION":15.23382865,"ECCENTRICITY":0.00016797,"INCLINATION":97.3478,"RA_OF_ASC_NODE":192.9707,"ARG_OF_PERICENTER":121.2721,"MEAN_ANOMALY":238.8681,"EPHEMERIS_TYPE":0,"CLASSIFICATION_TYPE":"U","NORAD_CAT_ID":55690,"ELEMENT_SET_NO":999,"REV_AT_EPOCH":17630,"BSTAR":0.00028407268,"MEAN_MOTION_DOT":6.687e-5,"MEAN_MOTION_DDOT":0},{"OBJECT_NAME":"HORUS 2","OBJECT_ID":"2023-032A","EPOCH":"2026-04-27T06:46:53.476032","MEAN_MOTION":15.23541468,"ECCENTRICITY":0.00019999,"INCLINATION":97.3549,"RA_OF_ASC_NODE":193.7009,"ARG_OF_PERICENTER":137.0831,"MEAN_ANOMALY":223.0562,"EPHEMERIS_TYPE":0,"CLASSIFICATION_TYPE":"U","NORAD_CAT_ID":55844,"ELEMENT_SET_NO":999,"REV_AT_EPOCH":17373,"BSTAR":0.00032350328,"MEAN_MOTION_DOT":7.662e-5,"MEAN_MOTION_DDOT":0},{"OBJECT_NAME":"GLOBAL-19","OBJECT_ID":"2023-041B","EPOCH":"2026-04-26T11:33:06.105888","MEAN_MOTION":15.37827136,"ECCENTRICITY":0.00074887,"INCLINATION":42.0005,"RA_OF_ASC_NODE":143.5127,"ARG_OF_PERICENTER":326.8363,"MEAN_ANOMALY":33.2006,"EPHEMERIS_TYPE":0,"CLASSIFICATION_TYPE":"U","NORAD_CAT_ID":55982,"ELEMENT_SET_NO":999,"REV_AT_EPOCH":17396,"BSTAR":0.00043260359,"MEAN_MOTION_DOT":0.0001623,"MEAN_MOTION_DDOT":0},{"OBJECT_NAME":"BRO-9","OBJECT_ID":"2023-054H","EPOCH":"2026-04-24T09:25:01.924032","MEAN_MOTION":15.75390837,"ECCENTRICITY":0.00052874,"INCLINATION":97.3005,"RA_OF_ASC_NODE":29.2706,"ARG_OF_PERICENTER":146.3469,"MEAN_ANOMALY":213.8133,"EPHEMERIS_TYPE":0,"CLASSIFICATION_TYPE":"U","NORAD_CAT_ID":56185,"ELEMENT_SET_NO":999,"REV_AT_EPOCH":17056,"BSTAR":0.00076989894,"MEAN_MOTION_DOT":0.00117392,"MEAN_MOTION_DDOT":0},{"OBJECT_NAME":"ION SCV-010","OBJECT_ID":"2023-054Q","EPOCH":"2026-04-27T06:34:47.804160","MEAN_MOTION":15.25736189,"ECCENTRICITY":0.00138564,"INCLINATION":97.3847,"RA_OF_ASC_NODE":7.4241,"ARG_OF_PERICENTER":31.7044,"MEAN_ANOMALY":328.5026,"EPHEMERIS_TYPE":0,"CLASSIFICATION_TYPE":"U","NORAD_CAT_ID":56192,"ELEMENT_SET_NO":999,"REV_AT_EPOCH":16843,"BSTAR":0.00023759901,"MEAN_MOTION_DOT":6.004e-5,"MEAN_MOTION_DDOT":0},{"OBJECT_NAME":"GHOST-1","OBJECT_ID":"2023-054T","EPOCH":"2026-04-27T05:59:09.264192","MEAN_MOTION":16.11613856,"ECCENTRICITY":0.00077292,"INCLINATION":97.2877,"RA_OF_ASC_NODE":38.133,"ARG_OF_PERICENTER":160.3877,"MEAN_ANOMALY":199.7706,"EPHEMERIS_TYPE":0,"CLASSIFICATION_TYPE":"U","NORAD_CAT_ID":56195,"ELEMENT_SET_NO":999,"REV_AT_EPOCH":17138,"BSTAR":0.00083632084,"MEAN_MOTION_DOT":0.00860289,"MEAN_MOTION_DDOT":0.00043479369},{"OBJECT_NAME":"TELEOS-2","OBJECT_ID":"2023-057C","EPOCH":"2026-04-26T20:01:51.181824","MEAN_MOTION":14.96412641,"ECCENTRICITY":8.815e-5,"INCLINATION":9.9878,"RA_OF_ASC_NODE":218.0931,"ARG_OF_PERICENTER":279.7772,"MEAN_ANOMALY":80.2342,"EPHEMERIS_TYPE":0,"CLASSIFICATION_TYPE":"U","NORAD_CAT_ID":56310,"ELEMENT_SET_NO":999,"REV_AT_EPOCH":16509,"BSTAR":0.00055321807,"MEAN_MOTION_DOT":7.137e-5,"MEAN_MOTION_DDOT":0},{"OBJECT_NAME":"SNIPE 4","OBJECT_ID":"2023-072B","EPOCH":"2026-04-27T07:34:07.572288","MEAN_MOTION":15.40335134,"ECCENTRICITY":0.00068728,"INCLINATION":97.5309,"RA_OF_ASC_NODE":321.7739,"ARG_OF_PERICENTER":139.8199,"MEAN_ANOMALY":220.3556,"EPHEMERIS_TYPE":0,"CLASSIFICATION_TYPE":"U","NORAD_CAT_ID":56744,"ELEMENT_SET_NO":999,"REV_AT_EPOCH":16227,"BSTAR":0.00060309573,"MEAN_MOTION_DOT":0.00024307,"MEAN_MOTION_DDOT":0},{"OBJECT_NAME":"SNIPE 2","OBJECT_ID":"2023-072C","EPOCH":"2026-04-27T07:16:08.443200","MEAN_MOTION":15.44301361,"ECCENTRICITY":0.00055078,"INCLINATION":97.5309,"RA_OF_ASC_NODE":324.4726,"ARG_OF_PERICENTER":164.0926,"MEAN_ANOMALY":196.0496,"EPHEMERIS_TYPE":0,"CLASSIFICATION_TYPE":"U","NORAD_CAT_ID":56745,"ELEMENT_SET_NO":999,"REV_AT_EPOCH":16238,"BSTAR":0.00070943377,"MEAN_MOTION_DOT":0.00032684,"MEAN_MOTION_DDOT":0}]
