BRO-8                   
1 55011U 23001C   26117.28738091  .00033884  00000+0  69274-3 0  9999
2 55011  97.3257 181.8473 0004161 308.9730  51.1148 15.46063120184338
CONNECTA T1.2           
1 55012U 23001D   26117.13204763  .00021384  00000+0  41961-3 0  9993
2 55012  97.3313 187.0490 0004589 272.6488  87.4236 15.47348499184640
BIRKELAND               
1 55015U 23001G   26115.56602940  .00009059  00000+0  23561-3 0  9991
2 55015  97.3380 183.4315 0004999 299.4044  60.6702 15.39136194184259
ION SCV-008             
1 55051U 23001AU  26117.29730811  .00008422  00000+0  31080-3 0  9990
2 55051  97.5678 212.7989 0015048 186.5665 173.5379 15.27926316183563
ION SCV-007             
1 55060U 23001BD  26117.13580290  .00000462  00000+0  71854-4 0  9997
2 55060  97.9039 181.1561 0013353 136.4942 223.7325 14.77504908178715
HUYGENS                 
1 55093U 23001CN  26117.25641620  .00011267  00000+0  29201-3 0  9994
2 55093  97.3283 184.4192 0007853 263.5555  96.4796 15.39161752184531
SHARJAHSAT-1            
1 55104U 23001CZ  26117.24294009  .00021247  00000+0  41883-3 0  9990
2 55104  97.3208 185.3685 0004217 287.8599  72.2191 15.47219078184610
HORUS 1                 
1 55690U 23025A   26117.31430612  .00006687  00000+0  28407-3 0  9994
2 55690  97.3478 192.9707 0001679 121.2721 238.8681 15.23382865176305
HORUS 2                 
1 55844U 23032A   26117.28256338  .00007662  00000+0  32350-3 0  9996
2 55844  97.3549 193.7009 0001999 137.0831 223.0562 15.23541468173735
GLOBAL-19               
1 55982U 23041B   26116.48132067  .00016230  00000+0  43260-3 0  9995
2 55982  42.0005 143.5127 0007488 326.8363  33.2006 15.37827136173966
BRO-9                   
1 56185U 23054H   26114.39238338  .00117392  00000+0  76990-3 0  9998
2 56185  97.3005  29.2706 0005287 146.3469 213.8133 15.75390837170560
ION SCV-010             
1 56192U 23054Q   26117.27416440  .00006004  00000+0  23760-3 0  9992
2 56192  97.3847   7.4241 0013856  31.7044 328.5026 15.25736189168438
GHOST-1                 
1 56195U 23054T   26117.24941278  .00860289  43479-3  83632-3 0  9992
2 56195  97.2877  38.1330 0007729 160.3877 199.7706 16.11613856171380
TELEOS-2                
1 56310U 23057C   26116.83462016  .00007137  00000+0  55322-3 0  9995
2 56310   9.9878 218.0931 0000881 279.7772  80.2342 14.96412641165098
SNIPE 4                 
1 56744U 23072B   26117.31536542  .00024307  00000+0  60310-3 0  9994
2 56744  97.5309 321.7739 0006872 139.8199 220.3556 15.40335134162276
SNIPE 2                 
1 56745U 23072C   26117.30287550  .00032684  00000+0  70943-3 0  9996
2 56745  97.5309 324.4726 0005507 164.0926 196.0496 15.44301361162388
